start=new Date('2022-09-19T00:00:00.000Z').valueOf();
sats=[{"MEAN_MOTION_DDOT":"0.0000000000000","BSTAR":"0.00020631000000","CENTER_NAME":"EARTH","OBJECT_NAME":"STARLINK-2507","PERIOD":"95.592","APOAPSIS":"548.242","TIME_SYSTEM":"UTC","ELEMENT_SET_NO":"999","REV_AT_EPOCH":"7704","REF_FRAME":"TEME","INCLINATION":"53.0557","GP_ID":"212965025","MEAN_MOTION":"15.06396048","CLASSIFICATION_TYPE":"U","EPOCH":"2022-09-18T15:34:52.856832","SEMIMAJOR_AXIS":"6925.361","FILE":"3577422","COUNTRY_CODE":"US","ECCENTRICITY":"0.00014670","SITE":"AFETR","RA_OF_ASC_NODE":"24.0676","OBJECT_ID":"2021-036AS","MEAN_MOTION_DOT":"0.00002792","NORAD_CAT_ID":"48316","MEAN_ANOMALY":"279.3044","RCS_SIZE":"LARGE","OBJECT_TYPE":"PAYLOAD","LAUNCH_DATE":"2021-04-29","TLE_LINE2":"2 48316  53.0557  24.0676 0001467  80.8111 279.3044 15.06396048 77040","EPHEMERIS_TYPE":"0","ARG_OF_PERICENTER":"80.8111","PERIAPSIS":"546.210","DECAY_DATE":null,"MEAN_ELEMENT_THEORY":"SGP4","TLE_LINE1":"1 48316U 21036AS  22261.64922288  .00002792  00000-0  20631-3 0  9993"},{"MEAN_MOTION_DDOT":"0.0000000000000","CENTER_NAME":"EARTH","BSTAR":"0.00016638000000","OBJECT_NAME":"STARLINK-2513","PERIOD":"95.592","APOAPSIS":"548.272","ELEMENT_SET_NO":"999","TIME_SYSTEM":"UTC","REF_FRAME":"TEME","REV_AT_EPOCH":"7706","GP_ID":"212965278","INCLINATION":"53.0567","MEAN_MOTION":"15.06396085","CLASSIFICATION_TYPE":"U","EPOCH":"2022-09-18T18:40:38.853408","FILE":"3577422","SEMIMAJOR_AXIS":"6925.361","COUNTRY_CODE":"US","ECCENTRICITY":"0.00015110","RA_OF_ASC_NODE":"23.4913","SITE":"AFETR","OBJECT_ID":"2021-036AT","MEAN_MOTION_DOT":"0.00002197","NORAD_CAT_ID":"48317","MEAN_ANOMALY":"275.1077","RCS_SIZE":"LARGE","OBJECT_TYPE":"PAYLOAD","TLE_LINE2":"2 48317  53.0567  23.4913 0001511  85.0084 275.1077 15.06396085 77068","LAUNCH_DATE":"2021-04-29","EPHEMERIS_TYPE":"0","ARG_OF_PERICENTER":"85.0084","DECAY_DATE":null,"PERIAPSIS":"546.179","MEAN_ELEMENT_THEORY":"SGP4","TLE_LINE1":"1 48317U 21036AT  22261.77822747  .00002197  00000-0  16638-3 0  9998"},{"EPHEMERIS_TYPE":"0","DECAY_DATE":null,"PERIAPSIS":"546.242","ARG_OF_PERICENTER":"66.8248","MEAN_ELEMENT_THEORY":"SGP4","TLE_LINE1":"1 48318U 21036AU  22261.63724729  .00000192  00000-0  31808-4 0  9995","MEAN_MOTION_DOT":"0.00000192","NORAD_CAT_ID":"48318","RCS_SIZE":"LARGE","MEAN_ANOMALY":"293.2890","TLE_LINE2":"2 48318  53.0563  34.1381 0001413  66.8248 293.2890 15.06397771 76902","LAUNCH_DATE":"2021-04-29","OBJECT_TYPE":"PAYLOAD","EPOCH":"2022-09-18T15:17:38.165856","COUNTRY_CODE":"US","FILE":"3577422","SEMIMAJOR_AXIS":"6925.355","ECCENTRICITY":"0.00014130","RA_OF_ASC_NODE":"34.1381","SITE":"AFETR","OBJECT_ID":"2021-036AU","CENTER_NAME":"EARTH","BSTAR":"0.00003180800000","MEAN_MOTION_DDOT":"0.0000000000000","APOAPSIS":"548.199","PERIOD":"95.592","ELEMENT_SET_NO":"999","TIME_SYSTEM":"UTC","OBJECT_NAME":"STARLINK-2509","GP_ID":"212964031","INCLINATION":"53.0563","REF_FRAME":"TEME","REV_AT_EPOCH":"7690","MEAN_MOTION":"15.06397771","CLASSIFICATION_TYPE":"U"},{"CLASSIFICATION_TYPE":"U","MEAN_MOTION":"15.06398855","REV_AT_EPOCH":"7692","REF_FRAME":"TEME","INCLINATION":"53.0563","GP_ID":"212963781","OBJECT_NAME":"STARLINK-2512","APOAPSIS":"548.178","TIME_SYSTEM":"UTC","PERIOD":"95.592","ELEMENT_SET_NO":"999","MEAN_MOTION_DDOT":"0.0000000000000","BSTAR":"0.00011546000000","CENTER_NAME":"EARTH","OBJECT_ID":"2021-036AV","SITE":"AFETR","RA_OF_ASC_NODE":"33.5511","ECCENTRICITY":"0.00013880","SEMIMAJOR_AXIS":"6925.352","FILE":"3577422","COUNTRY_CODE":"US","EPOCH":"2022-09-18T18:22:02.745984","OBJECT_TYPE":"PAYLOAD","LAUNCH_DATE":"2021-04-29","TLE_LINE2":"2 48319  53.0563  33.5511 0001388  80.1853 279.9293 15.06398855 76927","MEAN_ANOMALY":"279.9293","RCS_SIZE":"LARGE","NORAD_CAT_ID":"48319","MEAN_MOTION_DOT":"0.00001439","TLE_LINE1":"1 48319U 21036AV  22261.76530956  .00001439  00000-0  11546-3 0  9998","MEAN_ELEMENT_THEORY":"SGP4","ARG_OF_PERICENTER":"80.1853","PERIAPSIS":"546.256","DECAY_DATE":null,"EPHEMERIS_TYPE":"0"},{"TLE_LINE1":"1 48320U 21036AW  22261.76255709  .00001880  00000-0  14505-3 0  9998","MEAN_ELEMENT_THEORY":"SGP4","ARG_OF_PERICENTER":"72.1541","PERIAPSIS":"546.325","DECAY_DATE":null,"EPHEMERIS_TYPE":"0","OBJECT_TYPE":"PAYLOAD","LAUNCH_DATE":"2021-04-29","TLE_LINE2":"2 48320  53.0563  33.5773 0001267  72.1541 287.9587 15.06403654 76929","MEAN_ANOMALY":"287.9587","RCS_SIZE":"LARGE","NORAD_CAT_ID":"48320","MEAN_MOTION_DOT":"0.00001880","SITE":"AFETR","OBJECT_ID":"2021-036AW","RA_OF_ASC_NODE":"33.5773","ECCENTRICITY":"0.00012670","SEMIMAJOR_AXIS":"6925.337","FILE":"3577422","COUNTRY_CODE":"US","EPOCH":"2022-09-18T18:18:04.932576","CLASSIFICATION_TYPE":"U","MEAN_MOTION":"15.06403654","REV_AT_EPOCH":"7692","REF_FRAME":"TEME","INCLINATION":"53.0563","GP_ID":"212964526","OBJECT_NAME":"STARLINK-2029","ELEMENT_SET_NO":"999","APOAPSIS":"548.080","PERIOD":"95.592","TIME_SYSTEM":"UTC","MEAN_MOTION_DDOT":"0.0000000000000","BSTAR":"0.00014505000000","CENTER_NAME":"EARTH"},{"ARG_OF_PERICENTER":"68.7140","PERIAPSIS":"546.112","DECAY_DATE":null,"EPHEMERIS_TYPE":"0","TLE_LINE1":"1 48321U 21036AX  22261.69254097  .00002776  00000-0  20517-3 0  9995","MEAN_ELEMENT_THEORY":"SGP4","NORAD_CAT_ID":"48321","MEAN_MOTION_DOT":"0.00002776","OBJECT_TYPE":"PAYLOAD","LAUNCH_DATE":"2021-04-29","TLE_LINE2":"2 48321  53.0575  33.8885 0001601  68.7140 291.4020 15.06397552 76918","MEAN_ANOMALY":"291.4020","RCS_SIZE":"LARGE","SEMIMAJOR_AXIS":"6925.356","FILE":"3577422","COUNTRY_CODE":"US","EPOCH":"2022-09-18T16:37:15.539808","OBJECT_ID":"2021-036AX","SITE":"AFETR","RA_OF_ASC_NODE":"33.8885","ECCENTRICITY":"0.00016010","OBJECT_NAME":"STARLINK-2457","ELEMENT_SET_NO":"999","APOAPSIS":"548.330","PERIOD":"95.592","TIME_SYSTEM":"UTC","MEAN_MOTION_DDOT":"0.0000000000000","BSTAR":"0.00020517000000","CENTER_NAME":"EARTH","MEAN_MOTION":"15.06397552","CLASSIFICATION_TYPE":"U","REV_AT_EPOCH":"7691","REF_FRAME":"TEME","INCLINATION":"53.0575","GP_ID":"212964779"},{"NORAD_CAT_ID":"48322","MEAN_MOTION_DOT":"0.00002942","LAUNCH_DATE":"2021-04-29","TLE_LINE2":"2 48322  53.0575  33.6050 0001210  85.2384 274.8743 15.06398230 76923","OBJECT_TYPE":"PAYLOAD","RCS_SIZE":"LARGE","MEAN_ANOMALY":"274.8743","PERIAPSIS":"546.381","DECAY_DATE":null,"ARG_OF_PERICENTER":"85.2384","EPHEMERIS_TYPE":"0","TLE_LINE1":"1 48322U 21036AY  22261.75518856  .00002942  00000-0  21633-3 0  9994","MEAN_ELEMENT_THEORY":"SGP4","APOAPSIS":"548.057","ELEMENT_SET_NO":"999","PERIOD":"95.592","TIME_SYSTEM":"UTC","OBJECT_NAME":"STARLINK-2477","BSTAR":"0.00021633000000","CENTER_NAME":"EARTH","MEAN_MOTION_DDOT":"0.0000000000000","MEAN_MOTION":"15.06398230","CLASSIFICATION_TYPE":"U","INCLINATION":"53.0575","GP_ID":"212963532","REV_AT_EPOCH":"7692","REF_FRAME":"TEME","COUNTRY_CODE":"US","SEMIMAJOR_AXIS":"6925.354","FILE":"3577422","EPOCH":"2022-09-18T18:07:28.291584","OBJECT_ID":"2021-036AY","SITE":"AFETR","RA_OF_ASC_NODE":"33.6050","ECCENTRICITY":"0.00012100"},{"TLE_LINE2":"2 48323  53.0561  33.6122 0001306  81.4163 278.6974 15.06399432 76921","LAUNCH_DATE":"2021-04-29","OBJECT_TYPE":"PAYLOAD","RCS_SIZE":"LARGE","MEAN_ANOMALY":"278.6974","NORAD_CAT_ID":"48323","MEAN_MOTION_DOT":"0.00002467","TLE_LINE1":"1 48323U 21036AZ  22261.75150491  .00002467  00000-0  18444-3 0  9990","MEAN_ELEMENT_THEORY":"SGP4","DECAY_DATE":null,"PERIAPSIS":"546.311","ARG_OF_PERICENTER":"81.4163","EPHEMERIS_TYPE":"0","MEAN_MOTION":"15.06399432","CLASSIFICATION_TYPE":"U","GP_ID":"212964281","INCLINATION":"53.0561","REF_FRAME":"TEME","REV_AT_EPOCH":"7692","TIME_SYSTEM":"UTC","APOAPSIS":"548.120","PERIOD":"95.592","ELEMENT_SET_NO":"999","OBJECT_NAME":"STARLINK-2515","CENTER_NAME":"EARTH","BSTAR":"0.00018444000000","MEAN_MOTION_DDOT":"0.0000000000000","SITE":"AFETR","RA_OF_ASC_NODE":"33.6122","OBJECT_ID":"2021-036AZ","ECCENTRICITY":"0.00013060","COUNTRY_CODE":"US","FILE":"3577422","SEMIMAJOR_AXIS":"6925.350","EPOCH":"2022-09-18T18:02:10.024224"},{"OBJECT_NAME":"STARLINK-2527","APOAPSIS":"548.094","TIME_SYSTEM":"UTC","PERIOD":"95.592","ELEMENT_SET_NO":"999","MEAN_MOTION_DDOT":"0.0000000000000","CENTER_NAME":"EARTH","BSTAR":"0.00013981000000","MEAN_MOTION":"15.06404381","CLASSIFICATION_TYPE":"U","REF_FRAME":"TEME","REV_AT_EPOCH":"7692","GP_ID":"212965026","INCLINATION":"53.0572","FILE":"3577422","SEMIMAJOR_AXIS":"6925.335","COUNTRY_CODE":"US","EPOCH":"2022-09-18T19:31:01.807104","RA_OF_ASC_NODE":"33.3185","SITE":"AFETR","OBJECT_ID":"2021-036BA","ECCENTRICITY":"0.00012910","NORAD_CAT_ID":"48324","MEAN_MOTION_DOT":"0.00001802","OBJECT_TYPE":"PAYLOAD","TLE_LINE2":"2 48324  53.0572  33.3185 0001291  82.6900 277.4236 15.06404381 76923","LAUNCH_DATE":"2021-04-29","MEAN_ANOMALY":"277.4236","RCS_SIZE":"LARGE","ARG_OF_PERICENTER":"82.6900","DECAY_DATE":null,"PERIAPSIS":"546.306","EPHEMERIS_TYPE":"0","TLE_LINE1":"1 48324U 21036BA  22261.81321536  .00001802  00000-0  13981-3 0  9991","MEAN_ELEMENT_THEORY":"SGP4"},{"MEAN_ANOMALY":"283.3308","RCS_SIZE":"LARGE","OBJECT_TYPE":"PAYLOAD","TLE_LINE2":"2 48325  53.0550  33.6623 0001326  76.7829 283.3308 15.06393062 76922","LAUNCH_DATE":"2021-04-29","MEAN_MOTION_DOT":"0.00000441","NORAD_CAT_ID":"48325","MEAN_ELEMENT_THEORY":"SGP4","TLE_LINE1":"1 48325U 21036BB  22261.74413607  .00000441  00000-0  48518-4 0  9998","EPHEMERIS_TYPE":"0","ARG_OF_PERICENTER":"76.7829","DECAY_DATE":null,"PERIAPSIS":"546.317","REF_FRAME":"TEME","REV_AT_EPOCH":"7692","GP_ID":"212965279","INCLINATION":"53.0550","MEAN_MOTION":"15.06393062","CLASSIFICATION_TYPE":"U","MEAN_MOTION_DDOT":"0.0000000000000","CENTER_NAME":"EARTH","BSTAR":"0.00004851800000","OBJECT_NAME":"STARLINK-2495","PERIOD":"95.593","APOAPSIS":"548.153","TIME_SYSTEM":"UTC","ELEMENT_SET_NO":"999","ECCENTRICITY":"0.00013260","SITE":"AFETR","OBJECT_ID":"2021-036BB","RA_OF_ASC_NODE":"33.6623","EPOCH":"2022-09-18T17:51:33.356448","FILE":"3577422","SEMIMAJOR_AXIS":"6925.370","COUNTRY_CODE":"US"}];
